0 DELTA 1 DEB
1 21465U 75052EZ  13283.58065839  .00000318  00000-0  59487-3 0  5677
2 21465 100.1101 144.9065 0069963 307.9987 081.4519 13.46622918101472
0 DELTA 1 DEB
1 21465U 75052EZ  13286.55981615  .00000312  00000-0  58616-3 0  5695
2 21465 100.1095 147.9116 0069796 300.8008 123.9003 13.46624676101871
0 DELTA 1 DEB
1 21465U 75052EZ  13287.59795433  .00000348  00000-0  64469-3 0  5705
2 21465 100.1092 148.9587 0069758 298.2673 116.6468 13.46625837102018
0 DELTA 1 DEB
1 21465U 75052EZ  13289.10449003  .00000319  00000-0  59689-3 0  5710
2 21465 100.1090 150.4784 0069701 294.5908 220.1224 13.46627138102210
0 DELTA 1 DEB
1 21465U 75052EZ  13290.56950448  .00000321  00000-0  59970-3 0  5729
2 21465 100.1087 151.9561 0069648 291.0133 122.3190 13.46628195102418
0 DELTA 1 DEB
1 21465U 75052EZ  13292.57555345  .00000324  00000-0  60610-3 0  5736
2 21465 100.1085 153.9794 0069580 286.0816 127.4216 13.46629331102680
0 DELTA 1 DEB
1 21465U 75052EZ  13294.58165552  .00000322  00000-0  60151-3 0  5745
2 21465 100.1084 156.0026 0069535 281.1666 132.7742 13.46630883102957
0 DELTA 1 DEB
1 21465U 75052EZ  13296.15618605  .00000309  00000-0  58080-3 0  5756
2 21465 100.1084 157.5904 0069470 277.3150 205.9184 13.46632218103162
